{
  "norad_id": 60202,
  "name": "STARLINK-32041",
  "history": [
    {
      "epoch": "2026-03-28T16:25:33.049920Z",
      "apogee_km": 475.99577036410665,
      "perigee_km": 474.4811743847122,
      "latitude_deg": 5.404158442444044e-05,
      "longitude_deg": 161.79031084660713,
      "height_km": 476.0034216305063,
      "semi_major_axis_km": 6853.37547237441,
      "eccentricity": 0.0001105,
      "inclination_deg": 53.1602,
      "raan_deg": 234.2793,
      "arg_perigee_deg": 79.8553,
      "mean_anomaly_deg": 280.2573,
      "mean_motion_rev_day": 15.30192162
    },
    {
      "epoch": "2026-03-30T15:27:08.811072Z",
      "apogee_km": 476.1136152492354,
      "perigee_km": 474.32735615416186,
      "latitude_deg": 6.712461531686704e-06,
      "longitude_deg": 165.35835806493455,
      "height_km": 476.0802422145852,
      "semi_major_axis_km": 6853.357485701698,
      "eccentricity": 0.00013032,
      "inclination_deg": 53.1607,
      "raan_deg": 225.1777,
      "arg_perigee_deg": 87.5391,
      "mean_anomaly_deg": 272.5759,
      "mean_motion_rev_day": 15.30198186
    },
    {
      "epoch": "2026-03-31T14:57:57.337056Z",
      "apogee_km": 476.1622181264129,
      "perigee_km": 474.3775909684682,
      "latitude_deg": -6.323102792424834e-05,
      "longitude_deg": 167.13985135475224,
      "height_km": 476.132035947366,
      "semi_major_axis_km": 6853.40690454744,
      "eccentricity": 0.0001302,
      "inclination_deg": 53.1604,
      "raan_deg": 220.6271,
      "arg_perigee_deg": 87.6912,
      "mean_anomaly_deg": 272.4237,
      "mean_motion_rev_day": 15.30181635
    },
    {
      "epoch": "2026-04-01T14:28:45.159744Z",
      "apogee_km": 475.96770690747235,
      "perigee_km": 474.55864783100515,
      "latitude_deg": -1.6970020801549657e-06,
      "longitude_deg": 168.9254810078755,
      "height_km": 476.0960630067887,
      "semi_major_axis_km": 6853.400177369238,
      "eccentricity": 0.0001028,
      "inclination_deg": 53.1631,
      "raan_deg": 216.0776,
      "arg_perigee_deg": 84.6368,
      "mean_anomaly_deg": 275.475,
      "mean_motion_rev_day": 15.30183888
    },
    {
      "epoch": "2026-04-02T07:43:19.779744Z",
      "apogee_km": 475.889084738712,
      "perigee_km": 474.60229360499306,
      "latitude_deg": 7.44744669126605e-05,
      "longitude_deg": -93.76415433175832,
      "height_km": 476.1927577373013,
      "semi_major_axis_km": 6853.382689171852,
      "eccentricity": 9.388e-05,
      "inclination_deg": 53.1652,
      "raan_deg": 212.7403,
      "arg_perigee_deg": 94.2785,
      "mean_anomaly_deg": 265.8324,
      "mean_motion_rev_day": 15.30189745
    },
    {
      "epoch": "2026-04-03T16:38:29.340960Z",
      "apogee_km": 476.06794875433934,
      "perigee_km": 474.6369401583379,
      "latitude_deg": -5.4375764693661115e-05,
      "longitude_deg": 124.72266316601238,
      "height_km": 476.6453590180705,
      "semi_major_axis_km": 6853.489444456339,
      "eccentricity": 0.0001044,
      "inclination_deg": 53.1619,
      "raan_deg": 206.369,
      "arg_perigee_deg": 123.4236,
      "mean_anomaly_deg": 236.6864,
      "mean_motion_rev_day": 15.30153992
    },
    {
      "epoch": "2026-04-04T16:09:13.087296Z",
      "apogee_km": 476.04837521679383,
      "perigee_km": 474.2308862543232,
      "latitude_deg": -1.9030590362014912e-05,
      "longitude_deg": 126.52750267307621,
      "height_km": 476.1091360237627,
      "semi_major_axis_km": 6853.276630735559,
      "eccentricity": 0.0001326,
      "inclination_deg": 53.1606,
      "raan_deg": 201.8217,
      "arg_perigee_deg": 94.508,
      "mean_anomaly_deg": 265.6072,
      "mean_motion_rev_day": 15.30225266
    },
    {
      "epoch": "2026-04-05T12:31:58.965600Z",
      "apogee_km": 476.4229244358976,
      "perigee_km": 474.29861426730895,
      "latitude_deg": 9.975124595923814e-06,
      "longitude_deg": 176.05551078190985,
      "height_km": 476.1869553237997,
      "semi_major_axis_km": 6853.497769351603,
      "eccentricity": 0.00015498,
      "inclination_deg": 53.1604,
      "raan_deg": 197.8778,
      "arg_perigee_deg": 86.1386,
      "mean_anomaly_deg": 273.9792,
      "mean_motion_rev_day": 15.30151204
    },
    {
      "epoch": "2026-04-05T15:40:04.140480Z",
      "apogee_km": 476.2542265589045,
      "perigee_km": 474.36678711552213,
      "latitude_deg": 4.2399069192436765e-05,
      "longitude_deg": 128.2970322426495,
      "height_km": 476.1912578143331,
      "semi_major_axis_km": 6853.447506837213,
      "eccentricity": 0.0001377,
      "inclination_deg": 53.1604,
      "raan_deg": 197.2696,
      "arg_perigee_deg": 88.9556,
      "mean_anomaly_deg": 271.1603,
      "mean_motion_rev_day": 15.30168037
    },
    {
      "epoch": "2026-04-06T07:20:34.366848Z",
      "apogee_km": 476.1604506442036,
      "perigee_km": 474.135716099172,
      "latitude_deg": 4.4952805888062554e-05,
      "longitude_deg": -110.50666239372313,
      "height_km": 475.90993948883,
      "semi_major_axis_km": 6853.2850833716875,
      "eccentricity": 0.00014772,
      "inclination_deg": 53.1606,
      "raan_deg": 194.2356,
      "arg_perigee_deg": 82.2785,
      "mean_anomaly_deg": 277.8384,
      "mean_motion_rev_day": 15.30222435
    },
    {
      "epoch": "2026-04-07T13:07:36.190560Z",
      "apogee_km": 476.0583860536726,
      "perigee_km": 474.4100132127369,
      "latitude_deg": 5.698210854932172e-05,
      "longitude_deg": 155.7473656003583,
      "height_km": 476.08462502503835,
      "semi_major_axis_km": 6853.371199633204,
      "eccentricity": 0.00012026,
      "inclination_deg": 53.1609,
      "raan_deg": 188.4704,
      "arg_perigee_deg": 86.673,
      "mean_anomaly_deg": 273.4409,
      "mean_motion_rev_day": 15.30193593
    },
    {
      "epoch": "2026-04-08T12:38:25.323936Z",
      "apogee_km": 476.49012666725685,
      "perigee_km": 474.29453001162983,
      "latitude_deg": -2.0020179120749582e-05,
      "longitude_deg": 157.52661166150463,
      "height_km": 476.2768036224508,
      "semi_major_axis_km": 6853.529328339443,
      "eccentricity": 0.00016018,
      "inclination_deg": 53.1614,
      "raan_deg": 183.9201,
      "arg_perigee_deg": 89.3075,
      "mean_anomaly_deg": 270.8109,
      "mean_motion_rev_day": 15.30140635
    },
    {
      "epoch": "2026-04-09T12:08:58.400736Z",
      "apogee_km": 477.5285730412361,
      "perigee_km": 471.9940353128177,
      "latitude_deg": 7.932380720105745e-06,
      "longitude_deg": 159.37092150816724,
      "height_km": 476.80748644733404,
      "semi_major_axis_km": 6852.898304177027,
      "eccentricity": 0.00040381,
      "inclination_deg": 53.1614,
      "raan_deg": 179.3677,
      "arg_perigee_deg": 114.592,
      "mean_anomaly_deg": 245.5502,
      "mean_motion_rev_day": 15.30351986
    },
    {
      "epoch": "2026-04-10T03:49:40.285056Z",
      "apogee_km": 475.32084699211737,
      "perigee_km": 474.72064743661576,
      "latitude_deg": 6.480438119269037e-05,
      "longitude_deg": -79.47954089181624,
      "height_km": 475.7443740896649,
      "semi_major_axis_km": 6853.157747214366,
      "eccentricity": 4.379e-05,
      "inclination_deg": 53.1627,
      "raan_deg": 176.3356,
      "arg_perigee_deg": 306.0969,
      "mean_anomaly_deg": 53.9992,
      "mean_motion_rev_day": 15.30265084
    }
  ]
}